{
  "type": "FeatureCollection",
  "features": [
    {
      "type": "Feature",
      "geometry": {
        "type": "Polygon",
        "coordinates": [
          [
            [
              72.68999484494371,
              23.25887269044533
            ],
            [
              72.7481286054861,
              23.325262021916913
            ],
            [
              72.7923120884881,
              23.27827281708961
            ],
            [
              72.7939081,
              23.2739531
            ],
            [
              72.7907323,
              23.2717454
            ],
            [
              72.7872562,
              23.268276
            ],
            [
              72.785325,
              23.2670933
            ],
            [
              72.7815484,
              23.2661076
            ],
            [
              72.7801752,
              23.2522292
            ],
            [
              72.7908611,
              23.2422137
            ],
            [
              72.7888011,
              23.2335382
            ],
            [
              72.7917623,
              23.2335776
            ],
            [
              72.79075792844883,
              23.229885787333114
            ],
            [
              72.68999484494371,
              23.25887269044533
            ]
          ]
        ]
      },
      "properties": {
        "id": 1,
        "name": "Sector 1",
        "zone": "Central",
        "area_km2": 62.27,
        "population": 52407,
        "density_per_km2": 841,
        "lst_avg_celsius": 33.74,
        "ndvi_avg": 0.216,
        "slum_density": 0.02,
        "outdoor_labor_index": 0.21,
        "elderly_ratio": 0.092,
        "child_ratio": 0.113,
        "water_scarcity_index": 0.05,
        "tree_canopy_ratio": 0.32,
        "public_water_access": 0.95,
        "cool_roofs_ratio": 0.32,
        "risk_score": 52.9,
        "vulnerability": "Medium Risk"
      }
    },
    {
      "type": "Feature",
      "geometry": {
        "type": "MultiPolygon",
        "coordinates": [
          [
            [
              [
                72.585810804143,
                23.130163559453948
              ],
              [
                72.5856507,
                23.130108
              ],
              [
                72.5846609,
                23.1298632
              ],
              [
                72.5842425,
                23.1301007
              ],
              [
                72.5840296,
                23.1297518
              ],
              [
                72.5830436,
                23.1299746
              ],
              [
                72.5826963,
                23.1299192
              ],
              [
                72.582482,
                23.1293754
              ],
              [
                72.5824557,
                23.1287129
              ],
              [
                72.582491,
                23.1278356
              ],
              [
                72.5819642,
                23.1276453
              ],
              [
                72.5817738,
                23.1274909
              ],
              [
                72.5815788,
                23.1267325
              ],
              [
                72.5815761,
                23.1263818
              ],
              [
                72.5814192,
                23.1251162
              ],
              [
                72.5811614,
                23.1243974
              ],
              [
                72.5810915,
                23.12404
              ],
              [
                72.5810301,
                23.1237261
              ],
              [
                72.5808098,
                23.1224027
              ],
              [
                72.5805349,
                23.1221906
              ],
              [
                72.5803857,
                23.1219191
              ],
              [
                72.5802762,
                23.1213549
              ],
              [
                72.5799115,
                23.1203835
              ],
              [
                72.5795074,
                23.1197438
              ],
              [
                72.5795073,
                23.1197438
              ],
              [
                72.5794139,
                23.1195497
              ],
              [
                72.5790588,
                23.1188121
              ],
              [
                72.5790587,
                23.1188121
              ],
              [
                72.5787656,
                23.1189316
              ],
              [
                72.5787656,
                23.1189317
              ],
              [
                72.5782135,
                23.1181958
              ],
              [
                72.5778772,
                23.1181987
              ],
              [
                72.5777314,
                23.1183754
              ],
              [
                72.5772306,
                23.1188279
              ],
              [
                72.5772305,
                23.1188279
              ],
              [
                72.5760006,
                23.1201249
              ],
              [
                72.5754976,
                23.1203046
              ],
              [
                72.5741583,
                23.1210567
              ],
              [
                72.5738452,
                23.1211955
              ],
              [
                72.5738443,
                23.1211959
              ],
              [
                72.5728183,
                23.1216919
              ],
              [
                72.5714975,
                23.1221125
              ],
              [
                72.5714974,
                23.1221125
              ],
              [
                72.5714709,
                23.1220429
              ],
              [
                72.571283,
                23.1215492
              ],
              [
                72.5711104,
                23.120966
              ],
              [
                72.570917,
                23.1204024
              ],
              [
                72.570917,
                23.1204023
              ],
              [
                72.5706789,
                23.1195078
              ],
              [
                72.5707998,
                23.1188247
              ],
              [
                72.570739,
                23.1186868
              ],
              [
                72.5706287,
                23.1184364
              ],
              [
                72.5706287,
                23.1184363
              ],
              [
                72.5700186,
                23.1183637
              ],
              [
                72.5700157,
                23.1179739
              ],
              [
                72.5700558,
                23.1177202
              ],
              [
                72.5698868,
                23.1176047
              ],
              [
                72.5698841,
                23.1172538
              ],
              [
                72.5699041,
                23.1169893
              ],
              [
                72.5699223,
                23.1167469
              ],
              [
                72.5690796,
                23.1164617
              ],
              [
                72.5690795,
                23.1164617
              ],
              [
                72.569077,
                23.1161303
              ],
              [
                72.5680454,
                23.1158859
              ],
              [
                72.5673318,
                23.1160089
              ],
              [
                72.5669116,
                23.1160319
              ],
              [
                72.5667214,
                23.116027
              ],
              [
                72.5663441,
                23.1160173
              ],
              [
                72.5660942,
                23.1163118
              ],
              [
                72.5659273,
                23.1161901
              ],
              [
                72.5657772,
                23.1160806
              ],
              [
                72.5653828,
                23.1161515
              ],
              [
                72.5649798,
                23.1162239
              ],
              [
                72.5641483,
                23.1161026
              ],
              [
                72.5638437,
                23.1160582
              ],
              [
                72.5637109,
                23.1160619
              ],
              [
                72.5635393,
                23.1160545
              ],
              [
                72.5630777,
                23.1160347
              ],
              [
                72.5630776,
                23.1160347
              ],
              [
                72.5634874,
                23.1165834
              ],
              [
                72.5645754,
                23.1178751
              ],
              [
                72.5646709,
                23.1180078
              ],
              [
                72.564868,
                23.1182815
              ],
              [
                72.5650581,
                23.1188414
              ],
              [
                72.5653555,
                23.1198213
              ],
              [
                72.5656286,
                23.1202412
              ],
              [
                72.5664092,
                23.1212529
              ],
              [
                72.5665674,
                23.1216468
              ],
              [
                72.5666774,
                23.1219211
              ],
              [
                72.5668211,
                23.1222984
              ],
              [
                72.5669749,
                23.1227024
              ],
              [
                72.5674576,
                23.1238944
              ],
              [
                72.5676087,
                23.124495
              ],
              [
                72.5677566,
                23.1251066
              ],
              [
                72.5678086,
                23.1253212
              ],
              [
                72.5678086,
                23.1253213
              ],
              [
                72.5678499,
                23.1258226
              ],
              [
                72.5679348,
                23.1268518
              ],
              [
                72.5666753,
                23.1269327
              ],
              [
                72.566758,
                23.1279035
              ],
              [
                72.5669682,
                23.1279133
              ],
              [
                72.567827,
                23.1279534
              ],
              [
                72.5677579,
                23.1295833
              ],
              [
                72.5676605,
                23.1301229
              ],
              [
                72.5676259,
                23.1303146
              ],
              [
                72.5676258,
                23.1303147
              ],
              [
                72.5672689,
                23.1316825
              ],
              [
                72.5672689,
                23.1316826
              ],
              [
                72.5669757,
                23.1324545
              ],
              [
                72.5668302,
                23.1326884
              ],
              [
                72.5664481,
                23.133303
              ],
              [
                72.5650565,
                23.1350498
              ],
              [
                72.5646897,
                23.1355102
              ],
              [
                72.5630586,
                23.1367106
              ],
              [
                72.5630585,
                23.1367106
              ],
              [
                72.562619,
                23.1372702
              ],
              [
                72.5616375,
                23.137753
              ],
              [
                72.5596159,
                23.1385333
              ],
              [
                72.5594655,
                23.1385701
              ],
              [
                72.5592107,
                23.1386324
              ],
              [
                72.5588522,
                23.1386425
              ],
              [
                72.5585761,
                23.1386502
              ],
              [
                72.5578779,
                23.1386318
              ],
              [
                72.5579656,
                23.1381445
              ],
              [
                72.5580395,
                23.1377335
              ],
              [
                72.557727,
                23.1377107
              ],
              [
                72.5575806,
                23.1375933
              ],
              [
                72.5573646,
                23.137142
              ],
              [
                72.557049,
                23.1364824
              ],
              [
                72.5568002,
                23.1361707
              ],
              [
                72.556393,
                23.135949
              ],
              [
                72.5562194,
                23.1358545
              ],
              [
                72.555951,
                23.1356016
              ],
              [
                72.555951,
                23.1356015
              ],
              [
                72.555297,
                23.135222
              ],
              [
                72.5551912,
                23.135152
              ],
              [
                72.5550579,
                23.1350639
              ],
              [
                72.5523295,
                23.1339926
              ],
              [
                72.5474779,
                23.1323605
              ],
              [
                72.5456621,
                23.1319532
              ],
              [
                72.5448888,
                23.1319071
              ],
              [
                72.5444417,
                23.1318805
              ],
              [
                72.5405807,
                23.1322716
              ],
              [
                72.539978,
                23.1343024
              ],
              [
                72.5399565,
                23.1353284
              ],
              [
                72.5398278,
                23.136315
              ],
              [
                72.5413084,
                23.1369267
              ],
              [
                72.5416732,
                23.137933
              ],
              [
                72.5412226,
                23.138821
              ],
              [
                72.5404715,
                23.1403205
              ],
              [
                72.5418877,
                23.1441878
              ],
              [
                72.5424242,
                23.1451349
              ],
              [
                72.5426817,
                23.1463779
              ],
              [
                72.5424456,
                23.1475617
              ],
              [
                72.5418019,
                23.1483312
              ],
              [
                72.5413942,
                23.1492388
              ],
              [
                72.5423169,
                23.1511131
              ],
              [
                72.5430679,
                23.1525139
              ],
              [
                72.5438404,
                23.1535793
              ],
              [
                72.5446343,
                23.1549801
              ],
              [
                72.5448918,
                23.1563611
              ],
              [
                72.5451064,
                23.1583537
              ],
              [
                72.5466084,
                23.1607409
              ],
              [
                72.547338,
                23.161964
              ],
              [
                72.5479817,
                23.1637001
              ],
              [
                72.5461578,
                23.1641341
              ],
              [
                72.5407934,
                23.1649627
              ],
              [
                72.53899,
                23.16443
              ],
              [
                72.5368452,
                23.1647062
              ],
              [
                72.5359654,
                23.1682769
              ],
              [
                72.5304723,
                23.1677442
              ],
              [
                72.5281334,
                23.1700326
              ],
              [
                72.5278973,
                23.1720645
              ],
              [
                72.528069,
                23.1751417
              ],
              [
                72.5285839,
                23.1784951
              ],
              [
                72.5289487,
                23.1810398
              ],
              [
                72.52911519171695,
                23.18112482241876
              ],
              [
                72.585810804143,
                23.130163559453948
              ]
            ]
          ],
          [
            [
              [
                72.62935954355193,
                23.09101945877596
              ],
              [
                72.6291095,
                23.0910043
              ],
              [
                72.6283872,
                23.091045
              ],
              [
                72.6279187,
                23.0910856
              ],
              [
                72.6268597,
                23.0913475
              ],
              [
                72.6264497,
                23.0914649
              ],
              [
                72.6250881,
                23.0916048
              ],
              [
                72.624151,
                23.0917042
              ],
              [
                72.6219305,
                23.0918532
              ],
              [
                72.6212424,
                23.0919255
              ],
              [
                72.6205404,
                23.0919454
              ],
              [
                72.6186998,
                23.0919976
              ],
              [
                72.6186997,
                23.0919976
              ],
              [
                72.6174601,
                23.0920157
              ],
              [
                72.6168194,
                23.0919771
              ],
              [
                72.6152835,
                23.0918846
              ],
              [
                72.6142294,
                23.0918845
              ],
              [
                72.6131898,
                23.0918348
              ],
              [
                72.6117893,
                23.0917535
              ],
              [
                72.6105997,
                23.091592
              ],
              [
                72.6104911,
                23.0915773
              ],
              [
                72.6103593,
                23.0915141
              ],
              [
                72.6103952,
                23.0926877
              ],
              [
                72.6104357,
                23.0940121
              ],
              [
                72.6105888,
                23.0941361
              ],
              [
                72.610869,
                23.0943631
              ],
              [
                72.6108157,
                23.0943625
              ],
              [
                72.6107867,
                23.0943622
              ],
              [
                72.6108128,
                23.0944788
              ],
              [
                72.6108269,
                23.0945421
              ],
              [
                72.610283,
                23.094583
              ],
              [
                72.6098689,
                23.0962813
              ],
              [
                72.6105031,
                23.0978262
              ],
              [
                72.6102036,
                23.0992711
              ],
              [
                72.6100365,
                23.0998088
              ],
              [
                72.6099003,
                23.1002474
              ],
              [
                72.6099046,
                23.1007882
              ],
              [
                72.6100873,
                23.1011571
              ],
              [
                72.6102602,
                23.1015062
              ],
              [
                72.6103962,
                23.1017886
              ],
              [
                72.6105369,
                23.1020807
              ],
              [
                72.6107422,
                23.1023932
              ],
              [
                72.6107451,
                23.1027651
              ],
              [
                72.6110877,
                23.1027848
              ],
              [
                72.6112556,
                23.1027944
              ],
              [
                72.6112575,
                23.103033
              ],
              [
                72.6112591,
                23.1032338
              ],
              [
                72.6115536,
                23.103603
              ],
              [
                72.6116324,
                23.104346
              ],
              [
                72.6117446,
                23.1047168
              ],
              [
                72.6118236,
                23.1047056
              ],
              [
                72.6125092,
                23.1046088
              ],
              [
                72.6132016,
                23.1046025
              ],
              [
                72.613446949845,
                23.10532260919009
              ],
              [
                72.62935954355193,
                23.09101945877596
              ]
            ]
          ]
        ]
      },
      "properties": {
        "id": 2,
        "name": "Sector 2",
        "zone": "North",
        "area_km2": 14.11,
        "population": 62939,
        "density_per_km2": 4459,
        "lst_avg_celsius": 33.09,
        "ndvi_avg": 0.327,
        "slum_density": 0.03,
        "outdoor_labor_index": 0.04,
        "elderly_ratio": 0.089,
        "child_ratio": 0.095,
        "water_scarcity_index": 0.07,
        "tree_canopy_ratio": 0.49,
        "public_water_access": 0.93,
        "cool_roofs_ratio": 0.31,
        "risk_score": 30.3,
        "vulnerability": "Low Risk"
      }
    },
    {
      "type": "Feature",
      "geometry": {
        "type": "Polygon",
        "coordinates": [
          [
            [
              72.654187129545,
              23.277294280490235
            ],
            [
              72.69130686942778,
              23.343960793656557
            ],
            [
              72.6947306,
              23.3439109
            ],
            [
              72.6972197,
              23.3417043
            ],
            [
              72.7000521,
              23.34462
            ],
            [
              72.7021121,
              23.3413103
            ],
            [
              72.700138,
              23.3391825
            ],
            [
              72.7020262,
              23.336503
            ],
            [
              72.7040862,
              23.3364242
            ],
            [
              72.7081202,
              23.3346115
            ],
            [
              72.7088927,
              23.331262
            ],
            [
              72.7078199,
              23.3288976
            ],
            [
              72.7082919,
              23.3272031
            ],
            [
              72.7104377,
              23.3260603
            ],
            [
              72.7120685,
              23.3254298
            ],
            [
              72.71636,
              23.3293311
            ],
            [
              72.7216386,
              23.3371728
            ],
            [
              72.7231836,
              23.3411132
            ],
            [
              72.7222394,
              23.3464719
            ],
            [
              72.7204799,
              23.3523032
            ],
            [
              72.7196216,
              23.3582525
            ],
            [
              72.721424,
              23.3629014
            ],
            [
              72.7266382,
              23.3656098
            ],
            [
              72.7288484,
              23.3667622
            ],
            [
              72.7326894,
              23.3693623
            ],
            [
              72.7336549,
              23.3733017
            ],
            [
              72.733097,
              23.3762168
            ],
            [
              72.7312088,
              23.3786198
            ],
            [
              72.7274322,
              23.3806288
            ],
            [
              72.725501,
              23.3842527
            ],
            [
              72.7234814,
              23.3885708
            ],
            [
              72.7234882,
              23.3885699
            ],
            [
              72.7247187,
              23.3884211
            ],
            [
              72.7260491,
              23.3883615
            ],
            [
              72.7276877,
              23.3884914
            ],
            [
              72.7284901,
              23.3888023
            ],
            [
              72.7298203,
              23.3885892
            ],
            [
              72.72987085293421,
              23.388595066230177
            ],
            [
              72.7481286054861,
              23.325262021916913
            ],
            [
              72.68999484494371,
              23.25887269044533
            ],
            [
              72.66994310351463,
              23.252933662133266
            ],
            [
              72.654187129545,
              23.277294280490235
            ]
          ]
        ]
      },
      "properties": {
        "id": 3,
        "name": "Sector 3",
        "zone": "East",
        "area_km2": 61.04,
        "population": 108011,
        "density_per_km2": 1769,
        "lst_avg_celsius": 33.97,
        "ndvi_avg": 0.195,
        "slum_density": 0.0,
        "outdoor_labor_index": 0.16,
        "elderly_ratio": 0.073,
        "child_ratio": 0.115,
        "water_scarcity_index": 0.07,
        "tree_canopy_ratio": 0.29,
        "public_water_access": 0.93,
        "cool_roofs_ratio": 0.3,
        "risk_score": 55.3,
        "vulnerability": "High Risk"
      }
    },
    {
      "type": "Feature",
      "geometry": {
        "type": "Polygon",
        "coordinates": [
          [
            [
              72.73260573520504,
              23.142237637597166
            ],
            [
              72.72543244336337,
              23.179071319131353
            ],
            [
              72.7858975098547,
              23.216626952212657
            ],
            [
              72.7883291,
              23.2100328
            ],
            [
              72.791934,
              23.2116894
            ],
            [
              72.795453,
              23.2123204
            ],
            [
              72.8042936,
              23.2099934
            ],
            [
              72.8054523,
              23.2084946
            ],
            [
              72.8027486,
              23.2064041
            ],
            [
              72.7983713,
              23.2035641
            ],
            [
              72.7973413,
              23.2000536
            ],
            [
              72.7969551,
              23.1951229
            ],
            [
              72.7956676,
              23.1892058
            ],
            [
              72.7929639,
              23.1845508
            ],
            [
              72.7900886,
              23.1821838
            ],
            [
              72.7881145,
              23.1795012
            ],
            [
              72.7912902,
              23.1741357
            ],
            [
              72.7920198,
              23.1661267
            ],
            [
              72.7924489,
              23.1611947
            ],
            [
              72.7891874,
              23.1606028
            ],
            [
              72.7874279,
              23.1595769
            ],
            [
              72.7866125,
              23.1513302
            ],
            [
              72.788887,
              23.1475815
            ],
            [
              72.7934789,
              23.1441483
            ],
            [
              72.7938652,
              23.1431223
            ],
            [
              72.7913761,
              23.1405179
            ],
            [
              72.7895736,
              23.1359007
            ],
            [
              72.7847242,
              23.1293495
            ],
            [
              72.7830505,
              23.1286786
            ],
            [
              72.7778577,
              23.128797
            ],
            [
              72.7744674,
              23.1256397
            ],
            [
              72.7704334,
              23.1210219
            ],
            [
              72.7654981,
              23.1156936
            ],
            [
              72.7611637,
              23.1129701
            ],
            [
              72.7581596,
              23.1118256
            ],
            [
              72.7546834,
              23.111944
            ],
            [
              72.7510786,
              23.1124966
            ],
            [
              72.7481603,
              23.1141543
            ],
            [
              72.7456283,
              23.1150621
            ],
            [
              72.7445125,
              23.1136017
            ],
            [
              72.74255766300773,
              23.11346599159768
            ],
            [
              72.73260573520504,
              23.142237637597166
            ]
          ]
        ]
      },
      "properties": {
        "id": 4,
        "name": "Sector 4",
        "zone": "South",
        "area_km2": 60.88,
        "population": 119082,
        "density_per_km2": 1956,
        "lst_avg_celsius": 33.5,
        "ndvi_avg": 0.293,
        "slum_density": 0.0,
        "outdoor_labor_index": 0.0,
        "elderly_ratio": 0.095,
        "child_ratio": 0.119,
        "water_scarcity_index": 0.1,
        "tree_canopy_ratio": 0.44,
        "public_water_access": 0.9,
        "cool_roofs_ratio": 0.34,
        "risk_score": 36.7,
        "vulnerability": "Medium Risk"
      }
    },
    {
      "type": "Feature",
      "geometry": {
        "type": "Polygon",
        "coordinates": [
          [
            [
              72.56038498311298,
              23.192251923784205
            ],
            [
              72.61228365583285,
              23.162375209295323
            ],
            [
              72.63509259820746,
              23.11186152003141
            ],
            [
              72.63289679100288,
              23.091331261529096
            ],
            [
              72.6327404,
              23.0913066
            ],
            [
              72.6316276,
              23.0911171
            ],
            [
              72.6311104,
              23.0910945
            ],
            [
              72.6299293,
              23.091054
            ],
            [
              72.62935954355193,
              23.09101945877596
            ],
            [
              72.613446949845,
              23.10532260919009
            ],
            [
              72.6135002,
              23.1054789
            ],
            [
              72.6138367,
              23.1065576
            ],
            [
              72.6138413,
              23.1071322
            ],
            [
              72.6138477,
              23.1079435
            ],
            [
              72.6139966,
              23.1083309
            ],
            [
              72.614766,
              23.1088311
            ],
            [
              72.6152485,
              23.1090208
            ],
            [
              72.6156069,
              23.1091617
            ],
            [
              72.6160807,
              23.1091575
            ],
            [
              72.6162291,
              23.1092475
            ],
            [
              72.6168497,
              23.1096239
            ],
            [
              72.6169201,
              23.1103966
            ],
            [
              72.6169697,
              23.1109413
            ],
            [
              72.6170129,
              23.1117859
            ],
            [
              72.6173837,
              23.1122719
            ],
            [
              72.6176021,
              23.1125582
            ],
            [
              72.6176021,
              23.1125583
            ],
            [
              72.618083,
              23.1134328
            ],
            [
              72.6184506,
              23.1141676
            ],
            [
              72.6184534,
              23.1141732
            ],
            [
              72.6186096,
              23.1150511
            ],
            [
              72.6178255,
              23.1150581
            ],
            [
              72.6174673,
              23.1150612
            ],
            [
              72.6170956,
              23.1150645
            ],
            [
              72.6165585,
              23.1150692
            ],
            [
              72.6159834,
              23.1150743
            ],
            [
              72.6147674,
              23.1151496
            ],
            [
              72.6142816,
              23.1152506
            ],
            [
              72.6132042,
              23.1152601
            ],
            [
              72.6129607,
              23.1152463
            ],
            [
              72.612944,
              23.1153729
            ],
            [
              72.6129404,
              23.1154002
            ],
            [
              72.6129401,
              23.1154023
            ],
            [
              72.6127639,
              23.1167308
            ],
            [
              72.6130855,
              23.1178241
            ],
            [
              72.6130925,
              23.1186944
            ],
            [
              72.6131009,
              23.1197581
            ],
            [
              72.6131433,
              23.1207248
            ],
            [
              72.6143457,
              23.1232931
            ],
            [
              72.6138626,
              23.1232642
            ],
            [
              72.6124677,
              23.1231807
            ],
            [
              72.6122051,
              23.1251172
            ],
            [
              72.6121774,
              23.1260201
            ],
            [
              72.6106877,
              23.1266458
            ],
            [
              72.6107042,
              23.1273689
            ],
            [
              72.6107042,
              23.127369
            ],
            [
              72.6102104,
              23.1276032
            ],
            [
              72.6102103,
              23.1276032
            ],
            [
              72.6094563,
              23.1279216
            ],
            [
              72.6090621,
              23.1285586
            ],
            [
              72.6085407,
              23.1290699
            ],
            [
              72.606967,
              23.1293955
            ],
            [
              72.6062133,
              23.129753
            ],
            [
              72.6048716,
              23.1301935
            ],
            [
              72.6036975,
              23.1305548
            ],
            [
              72.6030044,
              23.1306193
            ],
            [
              72.6003806,
              23.1310516
            ],
            [
              72.599311,
              23.1313338
            ],
            [
              72.5984797,
              23.1311852
            ],
            [
              72.5977007,
              23.131036
            ],
            [
              72.5977007,
              23.1310361
            ],
            [
              72.5970353,
              23.1319384
            ],
            [
              72.5946728,
              23.1308481
            ],
            [
              72.5944323,
              23.1309768
            ],
            [
              72.5941915,
              23.1311056
            ],
            [
              72.5922135,
              23.1308111
            ],
            [
              72.5905931,
              23.1305328
            ],
            [
              72.5904854,
              23.1302024
            ],
            [
              72.5886108,
              23.1296925
            ],
            [
              72.5886512,
              23.1294778
            ],
            [
              72.5886511,
              23.1294778
            ],
            [
              72.5880822,
              23.1292684
            ],
            [
              72.5876676,
              23.1300126
            ],
            [
              72.587162,
              23.1298611
            ],
            [
              72.5867466,
              23.1304883
            ],
            [
              72.585810804143,
              23.130163559453948
            ],
            [
              72.52911519171695,
              23.18112482241876
            ],
            [
              72.5316524,
              23.1824205
            ],
            [
              72.5320815,
              23.185182
            ],
            [
              72.531625753338,
              23.18698668816216
            ],
            [
              72.56038498311298,
              23.192251923784205
            ]
          ]
        ]
      },
      "properties": {
        "id": 5,
        "name": "Sector 5",
        "zone": "West",
        "area_km2": 45.53,
        "population": 103988,
        "density_per_km2": 2284,
        "lst_avg_celsius": 33.56,
        "ndvi_avg": 0.286,
        "slum_density": 0.0,
        "outdoor_labor_index": 0.03,
        "elderly_ratio": 0.077,
        "child_ratio": 0.115,
        "water_scarcity_index": 0.1,
        "tree_canopy_ratio": 0.43,
        "public_water_access": 0.9,
        "cool_roofs_ratio": 0.32,
        "risk_score": 38.8,
        "vulnerability": "Medium Risk"
      }
    },
    {
      "type": "Feature",
      "geometry": {
        "type": "Polygon",
        "coordinates": [
          [
            [
              72.58939029319937,
              23.313360846332216
            ],
            [
              72.654187129545,
              23.277294280490235
            ],
            [
              72.66994310351463,
              23.252933662133266
            ],
            [
              72.6652518728553,
              23.232817613294962
            ],
            [
              72.64639545445308,
              23.222973075971336
            ],
            [
              72.59854908789384,
              23.226461915972937
            ],
            [
              72.58939029319937,
              23.313360846332216
            ]
          ]
        ]
      },
      "properties": {
        "id": 6,
        "name": "Sector 6",
        "zone": "North West",
        "area_km2": 57.33,
        "population": 54449,
        "density_per_km2": 949,
        "lst_avg_celsius": 35.06,
        "ndvi_avg": 0.147,
        "slum_density": 0.0,
        "outdoor_labor_index": 0.22,
        "elderly_ratio": 0.068,
        "child_ratio": 0.123,
        "water_scarcity_index": 0.09,
        "tree_canopy_ratio": 0.22,
        "public_water_access": 0.91,
        "cool_roofs_ratio": 0.32,
        "risk_score": 72.2,
        "vulnerability": "High Risk"
      }
    },
    {
      "type": "Feature",
      "geometry": {
        "type": "Polygon",
        "coordinates": [
          [
            [
              72.63509259820746,
              23.11186152003141
            ],
            [
              72.61228365583285,
              23.162375209295323
            ],
            [
              72.64639545445308,
              23.222973075971336
            ],
            [
              72.6652518728553,
              23.232817613294962
            ],
            [
              72.6930451590043,
              23.187865811117522
            ],
            [
              72.65255366888184,
              23.131627023740247
            ],
            [
              72.63509259820746,
              23.11186152003141
            ]
          ]
        ]
      },
      "properties": {
        "id": 7,
        "name": "Sector 7",
        "zone": "South West",
        "area_km2": 61.53,
        "population": 58371,
        "density_per_km2": 948,
        "lst_avg_celsius": 34.16,
        "ndvi_avg": 0.186,
        "slum_density": 0.09,
        "outdoor_labor_index": 0.21,
        "elderly_ratio": 0.098,
        "child_ratio": 0.109,
        "water_scarcity_index": 0.16,
        "tree_canopy_ratio": 0.28,
        "public_water_access": 0.84,
        "cool_roofs_ratio": 0.3,
        "risk_score": 64.6,
        "vulnerability": "High Risk"
      }
    },
    {
      "type": "Feature",
      "geometry": {
        "type": "Polygon",
        "coordinates": [
          [
            [
              72.63509259820746,
              23.11186152003141
            ],
            [
              72.65255366888184,
              23.131627023740247
            ],
            [
              72.73260573520504,
              23.142237637597166
            ],
            [
              72.74255766300773,
              23.11346599159768
            ],
            [
              72.742238,
              23.1134438
            ],
            [
              72.7395343,
              23.1145095
            ],
            [
              72.7386331,
              23.111944
            ],
            [
              72.7383756,
              23.1094968
            ],
            [
              72.7398347,
              23.1071284
            ],
            [
              72.7406501,
              23.1029147
            ],
            [
              72.7411007,
              23.1010989
            ],
            [
              72.7443194,
              23.0999245
            ],
            [
              72.7431607,
              23.0987403
            ],
            [
              72.7418518,
              23.0979902
            ],
            [
              72.7408004,
              23.0979113
            ],
            [
              72.7399206,
              23.0981876
            ],
            [
              72.7388477,
              23.0983652
            ],
            [
              72.7381182,
              23.0993324
            ],
            [
              72.7373671,
              23.0999442
            ],
            [
              72.7366376,
              23.099885
            ],
            [
              72.7356076,
              23.0984639
            ],
            [
              72.7352857,
              23.0979113
            ],
            [
              72.7339554,
              23.0978718
            ],
            [
              72.7331614,
              23.0987995
            ],
            [
              72.7329683,
              23.0996284
            ],
            [
              72.7311015,
              23.0991153
            ],
            [
              72.7286124,
              23.0983455
            ],
            [
              72.7234411,
              23.0972599
            ],
            [
              72.7212739,
              23.0969441
            ],
            [
              72.7193212,
              23.0962533
            ],
            [
              72.7178621,
              23.0956809
            ],
            [
              72.7165961,
              23.0953849
            ],
            [
              72.7161026,
              23.0966283
            ],
            [
              72.715373,
              23.09876
            ],
            [
              72.7150297,
              23.1010298
            ],
            [
              72.7138924,
              23.1045627
            ],
            [
              72.7134418,
              23.1057271
            ],
            [
              72.7131629,
              23.1068521
            ],
            [
              72.7123904,
              23.1079573
            ],
            [
              72.7117467,
              23.1086086
            ],
            [
              72.7105021,
              23.109852
            ],
            [
              72.7098369,
              23.1105822
            ],
            [
              72.7084851,
              23.1105624
            ],
            [
              72.7072191,
              23.110148
            ],
            [
              72.7062535,
              23.1101283
            ],
            [
              72.7054167,
              23.1105427
            ],
            [
              72.7040434,
              23.1114308
            ],
            [
              72.7015543,
              23.1108486
            ],
            [
              72.7004492,
              23.1109473
            ],
            [
              72.6999986,
              23.1114308
            ],
            [
              72.6997304,
              23.1119538
            ],
            [
              72.6982605,
              23.1115492
            ],
            [
              72.6967263,
              23.1109868
            ],
            [
              72.6955354,
              23.1086086
            ],
            [
              72.6941192,
              23.106556
            ],
            [
              72.6926728,
              23.1046158
            ],
            [
              72.6897526,
              23.1025298
            ],
            [
              72.6889157,
              23.1023522
            ],
            [
              72.6870489,
              23.1022732
            ],
            [
              72.684474,
              23.1020166
            ],
            [
              72.6831221,
              23.1020758
            ],
            [
              72.6823926,
              23.1021943
            ],
            [
              72.6812124,
              23.1023916
            ],
            [
              72.6811051,
              23.1032008
            ],
            [
              72.681148,
              23.1045232
            ],
            [
              72.6811695,
              23.105964
            ],
            [
              72.6798606,
              23.106556
            ],
            [
              72.6779079,
              23.1063784
            ],
            [
              72.6761269,
              23.10701
            ],
            [
              72.6737666,
              23.1078192
            ],
            [
              72.6718139,
              23.1080757
            ],
            [
              72.6681447,
              23.0994311
            ],
            [
              72.6652541,
              23.0948366
            ],
            [
              72.664893,
              23.0949766
            ],
            [
              72.6639463,
              23.095144
            ],
            [
              72.6639462,
              23.095144
            ],
            [
              72.6635461,
              23.0952253
            ],
            [
              72.6625261,
              23.0954468
            ],
            [
              72.6622117,
              23.0955957
            ],
            [
              72.6618967,
              23.0957449
            ],
            [
              72.6615004,
              23.0958905
            ],
            [
              72.6610231,
              23.0960656
            ],
            [
              72.6607352,
              23.0961831
            ],
            [
              72.6607351,
              23.0961831
            ],
            [
              72.6607065,
              23.0962361
            ],
            [
              72.6606473,
              23.0963457
            ],
            [
              72.6606388,
              23.0966482
            ],
            [
              72.6606378,
              23.0966843
            ],
            [
              72.6605333,
              23.0968147
            ],
            [
              72.6605256,
              23.0968243
            ],
            [
              72.6604234,
              23.0968848
            ],
            [
              72.6604035,
              23.0968966
            ],
            [
              72.6604034,
              23.0968966
            ],
            [
              72.6602633,
              23.0969149
            ],
            [
              72.6599545,
              23.0969553
            ],
            [
              72.6594274,
              23.0969464
            ],
            [
              72.6592371,
              23.0968653
            ],
            [
              72.6590956,
              23.0966846
            ],
            [
              72.6589245,
              23.0959127
            ],
            [
              72.6585681,
              23.0953845
            ],
            [
              72.658568,
              23.0953845
            ],
            [
              72.6579238,
              23.0951047
            ],
            [
              72.6579237,
              23.0951047
            ],
            [
              72.6575381,
              23.0949648
            ],
            [
              72.6565084,
              23.0948342
            ],
            [
              72.655176,
              23.0947261
            ],
            [
              72.6550296,
              23.0947542
            ],
            [
              72.6549173,
              23.0947757
            ],
            [
              72.6549173,
              23.0947758
            ],
            [
              72.6545367,
              23.0950738
            ],
            [
              72.6539859,
              23.0955099
            ],
            [
              72.6537266,
              23.0957151
            ],
            [
              72.6529363,
              23.0964241
            ],
            [
              72.6526386,
              23.096844
            ],
            [
              72.6523069,
              23.0975439
            ],
            [
              72.652058,
              23.0980451
            ],
            [
              72.6516469,
              23.0987395
            ],
            [
              72.6515848,
              23.0988444
            ],
            [
              72.6512677,
              23.0994358
            ],
            [
              72.6509945,
              23.0998964
            ],
            [
              72.6507375,
              23.1002155
            ],
            [
              72.650609,
              23.100375
            ],
            [
              72.6503845,
              23.1005828
            ],
            [
              72.6499258,
              23.100786
            ],
            [
              72.6495646,
              23.1008854
            ],
            [
              72.6493349,
              23.1009374
            ],
            [
              72.6491254,
              23.1009847
            ],
            [
              72.6489429,
              23.1010186
            ],
            [
              72.6487594,
              23.1010526
            ],
            [
              72.64847,
              23.1010883
            ],
            [
              72.6482469,
              23.1011158
            ],
            [
              72.6480492,
              23.1011295
            ],
            [
              72.6476563,
              23.1011566
            ],
            [
              72.6466266,
              23.1012154
            ],
            [
              72.6462653,
              23.1003035
            ],
            [
              72.6457576,
              23.0993735
            ],
            [
              72.6447957,
              23.097834
            ],
            [
              72.6443076,
              23.097184
            ],
            [
              72.6443076,
              23.0971839
            ],
            [
              72.643468,
              23.0960147
            ],
            [
              72.642809,
              23.0952653
            ],
            [
              72.6421258,
              23.0947372
            ],
            [
              72.6408372,
              23.0937666
            ],
            [
              72.6408371,
              23.0937665
            ],
            [
              72.6407832,
              23.0937282
            ],
            [
              72.6400758,
              23.0932248
            ],
            [
              72.6396349,
              23.0929348
            ],
            [
              72.6393485,
              23.0927463
            ],
            [
              72.6387579,
              23.0924665
            ],
            [
              72.638625,
              23.0924084
            ],
            [
              72.6381381,
              23.0921956
            ],
            [
              72.637367,
              23.0919835
            ],
            [
              72.6365568,
              23.0918075
            ],
            [
              72.6351807,
              23.0916044
            ],
            [
              72.6345811,
              23.0915694
            ],
            [
              72.6344876,
              23.0915639
            ],
            [
              72.6339995,
              23.0915052
            ],
            [
              72.63337,
              23.0914059
            ],
            [
              72.6332065,
              23.0913801
            ],
            [
              72.63289679100288,
              23.091331261529096
            ],
            [
              72.63509259820746,
              23.11186152003141
            ]
          ]
        ]
      },
      "properties": {
        "id": 8,
        "name": "Sector 8",
        "zone": "Central",
        "area_km2": 42.67,
        "population": 79927,
        "density_per_km2": 1872,
        "lst_avg_celsius": 33.39,
        "ndvi_avg": 0.3,
        "slum_density": 0.01,
        "outdoor_labor_index": 0.1,
        "elderly_ratio": 0.082,
        "child_ratio": 0.124,
        "water_scarcity_index": 0.09,
        "tree_canopy_ratio": 0.45,
        "public_water_access": 0.91,
        "cool_roofs_ratio": 0.31,
        "risk_score": 39.5,
        "vulnerability": "Medium Risk"
      }
    },
    {
      "type": "Feature",
      "geometry": {
        "type": "Polygon",
        "coordinates": [
          [
            [
              72.57759873677557,
              23.213954086636782
            ],
            [
              72.59854908789384,
              23.226461915972937
            ],
            [
              72.64639545445308,
              23.222973075971336
            ],
            [
              72.61228365583285,
              23.162375209295323
            ],
            [
              72.56038498311298,
              23.192251923784205
            ],
            [
              72.57759873677557,
              23.213954086636782
            ]
          ]
        ]
      },
      "properties": {
        "id": 9,
        "name": "Sector 9",
        "zone": "North",
        "area_km2": 38.03,
        "population": 78726,
        "density_per_km2": 2070,
        "lst_avg_celsius": 33.28,
        "ndvi_avg": 0.197,
        "slum_density": 0.0,
        "outdoor_labor_index": 0.02,
        "elderly_ratio": 0.097,
        "child_ratio": 0.098,
        "water_scarcity_index": 0.07,
        "tree_canopy_ratio": 0.3,
        "public_water_access": 0.93,
        "cool_roofs_ratio": 0.35,
        "risk_score": 40.6,
        "vulnerability": "Medium Risk"
      }
    },
    {
      "type": "Feature",
      "geometry": {
        "type": "Polygon",
        "coordinates": [
          [
            [
              72.654187129545,
              23.277294280490235
            ],
            [
              72.58939029319937,
              23.313360846332216
            ],
            [
              72.57839263955816,
              23.323296797925632
            ],
            [
              72.5786017,
              23.3259421
            ],
            [
              72.5792884,
              23.3295675
            ],
            [
              72.5809191,
              23.3317743
            ],
            [
              72.5821208,
              23.3346115
            ],
            [
              72.5838374,
              23.3353208
            ],
            [
              72.5874423,
              23.3345327
            ],
            [
              72.5931071,
              23.3345327
            ],
            [
              72.5968836,
              23.3349268
            ],
            [
              72.5991152,
              23.3361089
            ],
            [
              72.6020335,
              23.3357149
            ],
            [
              72.6034926,
              23.3365818
            ],
            [
              72.6056384,
              23.3398129
            ],
            [
              72.6088141,
              23.3387096
            ],
            [
              72.6163672,
              23.3345327
            ],
            [
              72.6205729,
              23.3362665
            ],
            [
              72.6222037,
              23.3392613
            ],
            [
              72.6249503,
              23.3441472
            ],
            [
              72.6303576,
              23.3439897
            ],
            [
              72.6366233,
              23.3403646
            ],
            [
              72.6385974,
              23.3375275
            ],
            [
              72.6423739,
              23.340995
            ],
            [
              72.6463221,
              23.3432016
            ],
            [
              72.657051,
              23.3443048
            ],
            [
              72.6698397,
              23.344226
            ],
            [
              72.6758479,
              23.3452505
            ],
            [
              72.6791094,
              23.3449352
            ],
            [
              72.6821135,
              23.3443836
            ],
            [
              72.6893233,
              23.3439897
            ],
            [
              72.69130686942778,
              23.343960793656557
            ],
            [
              72.654187129545,
              23.277294280490235
            ]
          ]
        ]
      },
      "properties": {
        "id": 10,
        "name": "Sector 10",
        "zone": "East",
        "area_km2": 52.53,
        "population": 106568,
        "density_per_km2": 2028,
        "lst_avg_celsius": 34.4,
        "ndvi_avg": 0.213,
        "slum_density": 0.08,
        "outdoor_labor_index": 0.28,
        "elderly_ratio": 0.091,
        "child_ratio": 0.131,
        "water_scarcity_index": 0.12,
        "tree_canopy_ratio": 0.32,
        "public_water_access": 0.88,
        "cool_roofs_ratio": 0.33,
        "risk_score": 66.6,
        "vulnerability": "High Risk"
      }
    },
    {
      "type": "Feature",
      "geometry": {
        "type": "Polygon",
        "coordinates": [
          [
            [
              72.5535085484935,
              23.30764719533807
            ],
            [
              72.5583886,
              23.3082074
            ],
            [
              72.5630235,
              23.3101387
            ],
            [
              72.5684737,
              23.3146315
            ],
            [
              72.5729798,
              23.3145921
            ],
            [
              72.5767564,
              23.3174691
            ],
            [
              72.5782155,
              23.3210554
            ],
            [
              72.57839263955816,
              23.323296797925632
            ],
            [
              72.58939029319937,
              23.313360846332216
            ],
            [
              72.59854908789384,
              23.226461915972937
            ],
            [
              72.57759873677557,
              23.213954086636782
            ],
            [
              72.5535085484935,
              23.30764719533807
            ]
          ]
        ]
      },
      "properties": {
        "id": 11,
        "name": "Sector 11",
        "zone": "South",
        "area_km2": 35.1,
        "population": 72260,
        "density_per_km2": 2058,
        "lst_avg_celsius": 34.17,
        "ndvi_avg": 0.237,
        "slum_density": 0.01,
        "outdoor_labor_index": 0.13,
        "elderly_ratio": 0.08,
        "child_ratio": 0.114,
        "water_scarcity_index": 0.09,
        "tree_canopy_ratio": 0.36,
        "public_water_access": 0.91,
        "cool_roofs_ratio": 0.3,
        "risk_score": 54.0,
        "vulnerability": "Medium Risk"
      }
    },
    {
      "type": "Feature",
      "geometry": {
        "type": "Polygon",
        "coordinates": [
          [
            [
              72.72543244336337,
              23.179071319131353
            ],
            [
              72.73260573520504,
              23.142237637597166
            ],
            [
              72.65255366888184,
              23.131627023740247
            ],
            [
              72.6930451590043,
              23.187865811117522
            ],
            [
              72.72543244336337,
              23.179071319131353
            ]
          ]
        ]
      },
      "properties": {
        "id": 12,
        "name": "Sector 12",
        "zone": "West",
        "area_km2": 32.05,
        "population": 85752,
        "density_per_km2": 2675,
        "lst_avg_celsius": 34.37,
        "ndvi_avg": 0.228,
        "slum_density": 0.0,
        "outdoor_labor_index": 0.04,
        "elderly_ratio": 0.08,
        "child_ratio": 0.117,
        "water_scarcity_index": 0.08,
        "tree_canopy_ratio": 0.34,
        "public_water_access": 0.92,
        "cool_roofs_ratio": 0.32,
        "risk_score": 50.8,
        "vulnerability": "Medium Risk"
      }
    },
    {
      "type": "Feature",
      "geometry": {
        "type": "Polygon",
        "coordinates": [
          [
            [
              72.7481286054861,
              23.325262021916913
            ],
            [
              72.72987085293421,
              23.388595066230177
            ],
            [
              72.7307105,
              23.3886925
            ],
            [
              72.7325895,
              23.3896122
            ],
            [
              72.7338274,
              23.3901214
            ],
            [
              72.7346297,
              23.3903015
            ],
            [
              72.7353002,
              23.3908112
            ],
            [
              72.7362984,
              23.3913025
            ],
            [
              72.7374483,
              23.3918299
            ],
            [
              72.73853,
              23.3926508
            ],
            [
              72.739127,
              23.3930115
            ],
            [
              72.739768,
              23.3932098
            ],
            [
              72.7406875,
              23.3931594
            ],
            [
              72.7416852,
              23.3929826
            ],
            [
              72.7426485,
              23.3926704
            ],
            [
              72.7431271,
              23.3919115
            ],
            [
              72.7436158,
              23.391419
            ],
            [
              72.744467,
              23.391599
            ],
            [
              72.7460265,
              23.3906316
            ],
            [
              72.7475371,
              23.3898809
            ],
            [
              72.7486957,
              23.3892209
            ],
            [
              72.7490963,
              23.3886517
            ],
            [
              72.7493844,
              23.3881729
            ],
            [
              72.7500001,
              23.3879436
            ],
            [
              72.750538,
              23.3877404
            ],
            [
              72.7525437,
              23.3873221
            ],
            [
              72.7527443,
              23.3872229
            ],
            [
              72.7527542,
              23.387092
            ],
            [
              72.752418,
              23.3856922
            ],
            [
              72.7522868,
              23.3847034
            ],
            [
              72.7521454,
              23.3842924
            ],
            [
              72.7519067,
              23.3832539
            ],
            [
              72.7517847,
              23.3829107
            ],
            [
              72.7508861,
              23.3815239
            ],
            [
              72.7500001,
              23.380325
            ],
            [
              72.7494543,
              23.3792518
            ],
            [
              72.748318,
              23.3776139
            ],
            [
              72.7475148,
              23.3763323
            ],
            [
              72.7466084,
              23.3746716
            ],
            [
              72.7465888,
              23.3745632
            ],
            [
              72.7470385,
              23.3743417
            ],
            [
              72.7489941,
              23.3735636
            ],
            [
              72.75,
              23.3732029
            ],
            [
              72.7519654,
              23.3725043
            ],
            [
              72.7532374,
              23.3719906
            ],
            [
              72.7541034,
              23.371603
            ],
            [
              72.7567944,
              23.370201
            ],
            [
              72.7575968,
              23.3697411
            ],
            [
              72.758267,
              23.3694842
            ],
            [
              72.7587171,
              23.3692318
            ],
            [
              72.759226,
              23.3690335
            ],
            [
              72.7603561,
              23.3684022
            ],
            [
              72.7610363,
              23.3680732
            ],
            [
              72.7615645,
              23.3679245
            ],
            [
              72.7623666,
              23.3678122
            ],
            [
              72.7631541,
              23.3676232
            ],
            [
              72.7642046,
              23.3674629
            ],
            [
              72.7643328,
              23.3674434
            ],
            [
              72.7644845,
              23.3673712
            ],
            [
              72.7636547,
              23.3655512
            ],
            [
              72.7632445,
              23.3647744
            ],
            [
              72.7630055,
              23.3641151
            ],
            [
              72.7629224,
              23.3640428
            ],
            [
              72.7627561,
              23.3640743
            ],
            [
              72.7626828,
              23.3640427
            ],
            [
              72.7625024,
              23.3634014
            ],
            [
              72.762356,
              23.363022
            ],
            [
              72.762107,
              23.3625343
            ],
            [
              72.7620338,
              23.3622724
            ],
            [
              72.7617947,
              23.3616718
            ],
            [
              72.761307,
              23.3602041
            ],
            [
              72.7612045,
              23.3599016
            ],
            [
              72.7608043,
              23.3589532
            ],
            [
              72.7607556,
              23.3587455
            ],
            [
              72.7607655,
              23.3586416
            ],
            [
              72.7613234,
              23.3579828
            ],
            [
              72.7616856,
              23.3576942
            ],
            [
              72.7620428,
              23.3574055
            ],
            [
              72.7634328,
              23.3558535
            ],
            [
              72.7643821,
              23.3551137
            ],
            [
              72.7650229,
              23.3547439
            ],
            [
              72.765502,
              23.3549158
            ],
            [
              72.7662745,
              23.3550834
            ],
            [
              72.7663722,
              23.3551827
            ],
            [
              72.7663524,
              23.3555936
            ],
            [
              72.7664255,
              23.355702
            ],
            [
              72.7665136,
              23.3557021
            ],
            [
              72.7669342,
              23.3556256
            ],
            [
              72.7672618,
              23.3556439
            ],
            [
              72.7674329,
              23.3556936
            ],
            [
              72.7678043,
              23.3559422
            ],
            [
              72.7679853,
              23.3560146
            ],
            [
              72.7680831,
              23.3560147
            ],
            [
              72.768176,
              23.3559425
            ],
            [
              72.7683622,
              23.355446
            ],
            [
              72.768592,
              23.3553648
            ],
            [
              72.7688757,
              23.3553561
            ],
            [
              72.7693549,
              23.3554331
            ],
            [
              72.7704258,
              23.3554428
            ],
            [
              72.7715014,
              23.3555248
            ],
            [
              72.7724745,
              23.3556654
            ],
            [
              72.7729536,
              23.3557018
            ],
            [
              72.7730123,
              23.3556747
            ],
            [
              72.7730223,
              23.3554445
            ],
            [
              72.7730713,
              23.3553227
            ],
            [
              72.7733647,
              23.3552642
            ],
            [
              72.7736336,
              23.3552553
            ],
            [
              72.7738927,
              23.3553457
            ],
            [
              72.7739808,
              23.3554135
            ],
            [
              72.7741123,
              23.356005
            ],
            [
              72.7741317,
              23.3563031
            ],
            [
              72.7741854,
              23.3564114
            ],
            [
              72.7744641,
              23.3564838
            ],
            [
              72.7750117,
              23.3565022
            ],
            [
              72.7755349,
              23.3564123
            ],
            [
              72.7764005,
              23.3563722
            ],
            [
              72.7775204,
              23.3562554
            ],
            [
              72.7778921,
              23.3561654
            ],
            [
              72.7779316,
              23.3557456
            ],
            [
              72.7783032,
              23.355642
            ],
            [
              72.7792227,
              23.3555432
            ],
            [
              72.7802544,
              23.3554851
            ],
            [
              72.7809097,
              23.3553456
            ],
            [
              72.7813645,
              23.3553232
            ],
            [
              72.781971,
              23.3552152
            ],
            [
              72.7824111,
              23.355193
            ],
            [
              72.7829197,
              23.3551029
            ],
            [
              72.7833842,
              23.3550851
            ],
            [
              72.7839516,
              23.3549726
            ],
            [
              72.7851203,
              23.3548333
            ],
            [
              72.7860397,
              23.3547932
            ],
            [
              72.7863331,
              23.3547527
            ],
            [
              72.7865923,
              23.3546446
            ],
            [
              72.7868322,
              23.3541435
            ],
            [
              72.7869399,
              23.3540442
            ],
            [
              72.7870328,
              23.3540352
            ],
            [
              72.7871599,
              23.3540534
            ],
            [
              72.7882599,
              23.3544422
            ],
            [
              72.7892426,
              23.3547724
            ],
            [
              72.7917601,
              23.3560017
            ],
            [
              72.7923321,
              23.3561329
            ],
            [
              72.7932806,
              23.356463
            ],
            [
              72.7935689,
              23.3567837
            ],
            [
              72.7941894,
              23.3576554
            ],
            [
              72.7942627,
              23.3577051
            ],
            [
              72.7943605,
              23.3577232
            ],
            [
              72.7953728,
              23.3576831
            ],
            [
              72.7961406,
              23.3576157
            ],
            [
              72.7964193,
              23.3575526
            ],
            [
              72.7964682,
              23.3574444
            ],
            [
              72.7964395,
              23.356582
            ],
            [
              72.7967184,
              23.3560629
            ],
            [
              72.7968408,
              23.355932
            ],
            [
              72.7970609,
              23.3557922
            ],
            [
              72.7975695,
              23.3555848
            ],
            [
              72.7977603,
              23.3555353
            ],
            [
              72.7988019,
              23.3553958
            ],
            [
              72.799692,
              23.3553556
            ],
            [
              72.7999413,
              23.3553737
            ],
            [
              72.8001417,
              23.3554415
            ],
            [
              72.8002003,
              23.3555048
            ],
            [
              72.8002684,
              23.3563852
            ],
            [
              72.8004587,
              23.3570038
            ],
            [
              72.8005516,
              23.3570851
            ],
            [
              72.8017399,
              23.3569457
            ],
            [
              72.8027376,
              23.356734
            ],
            [
              72.8043612,
              23.3564548
            ],
            [
              72.8056376,
              23.3561754
            ],
            [
              72.8062881,
              23.3559635
            ],
            [
              72.8066793,
              23.355932
            ],
            [
              72.8070807,
              23.3558666
            ],
            [
              72.8071488,
              23.3558555
            ],
            [
              72.8077699,
              23.3558558
            ],
            [
              72.8077601,
              23.3558016
            ],
            [
              72.8070709,
              23.3550428
            ],
            [
              72.8069585,
              23.3548848
            ],
            [
              72.8066508,
              23.354212
            ],
            [
              72.8064408,
              23.3538733
            ],
            [
              72.8060989,
              23.353074
            ],
            [
              72.8058011,
              23.3520942
            ],
            [
              72.8057867,
              23.351602
            ],
            [
              72.8057187,
              23.3507261
            ],
            [
              72.8056406,
              23.3503424
            ],
            [
              72.8053086,
              23.349376
            ],
            [
              72.8050204,
              23.3488341
            ],
            [
              72.8048008,
              23.3479446
            ],
            [
              72.8049382,
              23.3470237
            ],
            [
              72.8049189,
              23.3465225
            ],
            [
              72.804797,
              23.3459943
            ],
            [
              72.8047873,
              23.345606
            ],
            [
              72.8046069,
              23.344703
            ],
            [
              72.8045973,
              23.3442831
            ],
            [
              72.8046809,
              23.343335
            ],
            [
              72.8046472,
              23.3423734
            ],
            [
              72.8044671,
              23.3409963
            ],
            [
              72.8044869,
              23.3402152
            ],
            [
              72.8044091,
              23.3395064
            ],
            [
              72.8044191,
              23.3392535
            ],
            [
              72.8045269,
              23.3387029
            ],
            [
              72.8048012,
              23.3376962
            ],
            [
              72.804809,
              23.3375612
            ],
            [
              72.8048308,
              23.337186
            ],
            [
              72.8048896,
              23.3367571
            ],
            [
              72.8048314,
              23.3360167
            ],
            [
              72.8048271,
              23.3348563
            ],
            [
              72.8045586,
              23.3341475
            ],
            [
              72.8043778,
              23.3338539
            ],
            [
              72.8041189,
              23.3335738
            ],
            [
              72.8038011,
              23.3333932
            ],
            [
              72.8031071,
              23.3331671
            ],
            [
              72.802227,
              23.3329951
            ],
            [
              72.8015281,
              23.3328052
            ],
            [
              72.800081,
              23.3325336
            ],
            [
              72.7993477,
              23.3323572
            ],
            [
              72.7983114,
              23.3320452
            ],
            [
              72.7971187,
              23.3316248
            ],
            [
              72.7969184,
              23.3315253
            ],
            [
              72.7969725,
              23.3309068
            ],
            [
              72.7974191,
              23.3277874
            ],
            [
              72.7974587,
              23.327205
            ],
            [
              72.7983289,
              23.3271873
            ],
            [
              72.7993897,
              23.3272059
            ],
            [
              72.7994777,
              23.3271743
            ],
            [
              72.799561,
              23.3270661
            ],
            [
              72.7996686,
              23.3266959
            ],
            [
              72.7998598,
              23.3258878
            ],
            [
              72.7998894,
              23.3253957
            ],
            [
              72.8000902,
              23.3247276
            ],
            [
              72.8004383,
              23.3227955
            ],
            [
              72.8005317,
              23.3218384
            ],
            [
              72.8007083,
              23.3207865
            ],
            [
              72.8008016,
              23.3201274
            ],
            [
              72.8009976,
              23.3191071
            ],
            [
              72.8010613,
              23.3190485
            ],
            [
              72.8014378,
              23.3188455
            ],
            [
              72.8017801,
              23.318796
            ],
            [
              72.8035888,
              23.3187787
            ],
            [
              72.8046203,
              23.3188063
            ],
            [
              72.8068397,
              23.3187982
            ],
            [
              72.8101688,
              23.3188357
            ],
            [
              72.8102861,
              23.3188674
            ],
            [
              72.8104083,
              23.3189329
            ],
            [
              72.8121042,
              23.3159715
            ],
            [
              72.8106129,
              23.3141094
            ],
            [
              72.8066003,
              23.3128285
            ],
            [
              72.8024375,
              23.3116461
            ],
            [
              72.8022766,
              23.3054485
            ],
            [
              72.8048086,
              23.3048573
            ],
            [
              72.8037786,
              23.30131
            ],
            [
              72.8031349,
              23.2958705
            ],
            [
              72.8045511,
              23.2880658
            ],
            [
              72.8057527,
              23.284518
            ],
            [
              72.7965688,
              23.2814039
            ],
            [
              72.7915048,
              23.2804578
            ],
            [
              72.7923120884881,
              23.27827281708961
            ],
            [
              72.7481286054861,
              23.325262021916913
            ]
          ]
        ]
      },
      "properties": {
        "id": 13,
        "name": "Sector 13",
        "zone": "North West",
        "area_km2": 50.58,
        "population": 86315,
        "density_per_km2": 1706,
        "lst_avg_celsius": 33.1,
        "ndvi_avg": 0.318,
        "slum_density": 0.0,
        "outdoor_labor_index": 0.29,
        "elderly_ratio": 0.107,
        "child_ratio": 0.081,
        "water_scarcity_index": 0.08,
        "tree_canopy_ratio": 0.48,
        "public_water_access": 0.92,
        "cool_roofs_ratio": 0.31,
        "risk_score": 43.6,
        "vulnerability": "Medium Risk"
      }
    },
    {
      "type": "Feature",
      "geometry": {
        "type": "Polygon",
        "coordinates": [
          [
            [
              72.66994310351463,
              23.252933662133266
            ],
            [
              72.68999484494371,
              23.25887269044533
            ],
            [
              72.79075792844883,
              23.229885787333114
            ],
            [
              72.7882003,
              23.2204846
            ],
            [
              72.7857112,
              23.2171322
            ],
            [
              72.7858975098547,
              23.216626952212657
            ],
            [
              72.72543244336337,
              23.179071319131353
            ],
            [
              72.6930451590043,
              23.187865811117522
            ],
            [
              72.6652518728553,
              23.232817613294962
            ],
            [
              72.66994310351463,
              23.252933662133266
            ]
          ]
        ]
      },
      "properties": {
        "id": 14,
        "name": "Sector 14",
        "zone": "South West",
        "area_km2": 74.71,
        "population": 52582,
        "density_per_km2": 703,
        "lst_avg_celsius": 34.82,
        "ndvi_avg": 0.174,
        "slum_density": 0.05,
        "outdoor_labor_index": 0.04,
        "elderly_ratio": 0.123,
        "child_ratio": 0.117,
        "water_scarcity_index": 0.1,
        "tree_canopy_ratio": 0.26,
        "public_water_access": 0.9,
        "cool_roofs_ratio": 0.3,
        "risk_score": 63.7,
        "vulnerability": "High Risk"
      }
    },
    {
      "type": "Feature",
      "geometry": {
        "type": "Polygon",
        "coordinates": [
          [
            [
              72.57759873677557,
              23.213954086636782
            ],
            [
              72.56038498311298,
              23.192251923784205
            ],
            [
              72.531625753338,
              23.18698668816216
            ],
            [
              72.5315236,
              23.1873912
            ],
            [
              72.535858,
              23.1962274
            ],
            [
              72.5347423,
              23.2006453
            ],
            [
              72.5321674,
              23.203012
            ],
            [
              72.5313949,
              23.2057336
            ],
            [
              72.5322532,
              23.2077058
            ],
            [
              72.5326823,
              23.21094
            ],
            [
              72.536888,
              23.2160279
            ],
            [
              72.5390767,
              23.2186309
            ],
            [
              72.5419091,
              23.2212734
            ],
            [
              72.5447415,
              23.223127
            ],
            [
              72.5441407,
              23.2241918
            ],
            [
              72.5417804,
              23.2256116
            ],
            [
              72.5395917,
              23.2265974
            ],
            [
              72.5375318,
              23.2273467
            ],
            [
              72.535901,
              23.2283721
            ],
            [
              72.5355577,
              23.2301467
            ],
            [
              72.5332402,
              23.2310143
            ],
            [
              72.5312232,
              23.232158
            ],
            [
              72.5281333,
              23.2353522
            ],
            [
              72.5266313,
              23.2379943
            ],
            [
              72.5243138,
              23.2412673
            ],
            [
              72.5235843,
              23.2479312
            ],
            [
              72.5253009,
              23.2490353
            ],
            [
              72.5265884,
              23.251204
            ],
            [
              72.5274037,
              23.2542006
            ],
            [
              72.5282621,
              23.2567241
            ],
            [
              72.5299787,
              23.2592869
            ],
            [
              72.5328969,
              23.2590898
            ],
            [
              72.5396775,
              23.2590503
            ],
            [
              72.5410508,
              23.2611005
            ],
            [
              72.5439691,
              23.2665019
            ],
            [
              72.5446128,
              23.2737954
            ],
            [
              72.5468444,
              23.2747416
            ],
            [
              72.5473165,
              23.2761608
            ],
            [
              72.5468444,
              23.281049
            ],
            [
              72.5472306,
              23.2850699
            ],
            [
              72.5460719,
              23.2889725
            ],
            [
              72.5452136,
              23.2935449
            ],
            [
              72.5431537,
              23.2954369
            ],
            [
              72.5446557,
              23.3007187
            ],
            [
              72.546544,
              23.3032413
            ],
            [
              72.5500201,
              23.3080498
            ],
            [
              72.5525521,
              23.3075374
            ],
            [
              72.5535085484935,
              23.30764719533807
            ],
            [
              72.57759873677557,
              23.213954086636782
            ]
          ]
        ]
      },
      "properties": {
        "id": 15,
        "name": "Sector 15",
        "zone": "Central",
        "area_km2": 41.45,
        "population": 60142,
        "density_per_km2": 1450,
        "lst_avg_celsius": 33.25,
        "ndvi_avg": 0.283,
        "slum_density": 0.03,
        "outdoor_labor_index": 0.09,
        "elderly_ratio": 0.086,
        "child_ratio": 0.127,
        "water_scarcity_index": 0.11,
        "tree_canopy_ratio": 0.43,
        "public_water_access": 0.89,
        "cool_roofs_ratio": 0.31,
        "risk_score": 40.3,
        "vulnerability": "Medium Risk"
      }
    }
  ]
}